OBJECT_NAME,OBJECT_ID,EPOCH,MEAN_MOTION,ECCENTRICITY,INCLINATION,RA_OF_ASC_NODE,ARG_OF_PERICENTER,MEAN_ANOMALY,EPHEMERIS_TYPE,CLASSIFICATION_TYPE,NORAD_CAT_ID,ELEMENT_SET_NO,REV_AT_EPOCH,BSTAR,MEAN_MOTION_DOT,MEAN_MOTION_DDOT
H-2A R/B,2006-002B,2026-06-25T03:53:02.269248,15.18156552,.0049774,98.2569,332.7132,234.5569,125.1011,0,U,28932,999,11073,.39654762E-3,.8284E-4,0
RESURS-DK 1,2006-021A,2026-06-25T02:23:50.081280,15.13246973,.00067692,69.9325,319.0704,287.9882,72.0546,0,U,29228,999,10377,.11734078E-3,.1983E-4,0
CZ-4B R/B,2006-046C,2026-06-25T00:46:19.744608,15.17833730,.00310194,97.5451,220.6149,254.0818,105.6997,0,U,29507,999,7632,.18476803E-3,.3713E-4,0
CZ-2C R/B,2007-010B,2026-06-25T05:33:59.569344,14.20277815,.00585289,98.4104,284.1895,342.6964,17.2218,0,U,31114,999,99498,.47849002E-4,.63E-6,0
COSMO-SKYMED 1,2007-023A,2026-06-25T06:56:13.841376,14.97141281,.00018346,97.8861,8.2130,92.1585,267.9847,0,U,31598,999,3100,.28793446E-3,.3265E-4,0
COSMOS 2428,2007-029A,2026-06-24T20:39:02.867040,14.12927757,.00071391,70.9352,338.3659,120.2713,239.9115,0,U,31792,999,97923,.6132922E-5,-.36E-6,0
SL-16 R/B,2007-029B,2026-06-24T15:56:46.201632,14.14855370,.00024406,70.9772,307.5099,263.4687,107.2835,0,U,31793,999,98050,-.57748422E-4,-.159E-5,0
KORONAS-FOTON,2009-003A,2026-06-25T07:11:34.194048,15.45874637,.00123707,82.4285,163.7954,122.1147,238.1304,0,U,33504,999,96235,.27319686E-3,.13347E-3,0
CZ-2C R/B,2011-030B,2026-06-24T20:51:04.084992,14.81488467,.00523887,97.8656,131.1162,3.2587,20.7912,0,U,37731,999,80596,.15148016E-3,.116E-4,0
H-2A R/B,2012-025E,2026-06-24T22:00:27.697536,14.95749451,.00432195,98.4823,151.6997,323.1835,36.6418,0,U,38341,999,76424,.20700962E-3,.2279E-4,0
SHIJIAN-16 (SJ-16),2013-057A,2026-06-25T06:47:00.687840,14.92616948,.00165835,74.9732,341.3497,211.9712,148.0472,0,U,39358,999,68755,.89512667E-4,.894E-5,0
SL-4 R/B,2014-021B,2026-06-25T05:30:30.019968,15.42098562,.00908532,51.6035,171.3672,135.2490,225.5871,0,U,39679,999,67285,.21694767E-3,.10497E-3,0
ALOS-2,2014-029A,2026-06-24T20:23:00.524832,14.79476915,.00016311,97.9218,272.9036,90.6853,269.4546,0,U,39766,999,65271,.19768226E-3,.1425E-4,0
YAOGAN-29,2015-069A,2026-06-25T06:34:30.703872,14.83089125,.00022151,98.0031,204.9197,41.6943,318.4439,0,U,41038,999,57182,-.23960173E-4,-.249E-5,0
ASTRO-H (HITOMI),2016-012A,2026-06-24T23:07:55.719840,15.10541885,.00097404,31.0000,23.9627,331.2378,28.7723,0,U,41337,999,56846,.13225518E-3,.2333E-4,0
HXMT (HUIYAN),2017-034A,2026-06-25T06:58:42.462336,15.18523072,.00318053,43.0128,137.9150,198.7590,161.2088,0,U,42758,999,49889,.21698557E-3,.4377E-4,0
SAOCOM 1A,2018-076A,2026-06-25T07:18:57.547008,14.82153238,.00016032,97.8890,2.9354,80.1657,279.9737,0,U,43641,999,41730,.23444011E-4,.134E-5,0
H-2A R/B,2018-084L,2026-06-25T05:20:16.455552,15.45441960,.00225327,98.8576,56.8691,13.2037,346.9792,0,U,43682,999,42236,.50255385E-3,.24212E-3,0
SAOCOM 1B,2020-059A,2026-06-25T06:26:37.270752,14.82150335,.00016153,97.8893,1.9947,84.5600,275.5797,0,U,46265,999,31468,.3680557E-4,.241E-5,0
CSS (TIANHE),2021-035A,2026-06-25T07:03:51.450336,15.61147711,.00078456,41.4688,272.6527,146.8954,213.2378,0,U,48274,999,29443,.3209767E-3,.27694E-3,0
COSMOS 2550,2021-056A,2026-06-25T07:19:50.144736,15.33841013,.00084042,67.1436,75.3487,268.5768,91.4423,0,U,48865,999,27996,.1724814E-3,.5489E-4,0
CZ-2C R/B,2022-058K,2026-06-25T01:06:32.324544,15.62365993,.00320278,50.1846,122.6086,300.1303,59.6498,0,U,52794,999,22687,.43742178E-3,.40235E-3,0
CZ-2C R/B,2022-132E,2026-06-24T23:34:47.428032,15.72404603,.0014568,97.2898,183.3585,59.8735,300.3971,0,U,54039,999,20717,.54879517E-3,.73629E-3,0
GSLV R/B,2022-138AN,2026-06-25T06:30:53.123616,14.97289947,.00238264,87.3806,130.2692,116.7418,243.6256,0,U,54149,999,20002,.26252217E-3,.3088E-4,0
XRISM,2023-137A,2026-06-24T18:43:06.181824,15.12524299,.00078238,31.0028,310.4175,40.1157,320.0058,0,U,57800,999,15401,.23017088E-3,.421E-4,0
ACS3,2024-077B,2026-06-25T05:49:14.143584,13.94555074,.00922942,97.1685,93.2386,58.3869,302.6264,0,U,59588,999,10916,.14381782E-1,.19914E-3,0
CZ-8A R/B,2025-231K,2026-06-25T05:27:19.033632,14.30156949,.01164862,50.0056,5.1098,252.3025,106.5146,0,U,66004,999,3609,.44940244E-4,-.37E-6,0
SZ-21 MODULE,2025-246C,2026-06-23T14:43:12.019584,15.76903759,.00053434,41.4723,267.2876,38.8723,321.2505,0,U,66515,999,3475,.22797097E-3,.37843E-3,0
