{"format":"tle-catalog-v1","generatedAt":"2026-06-25T16:01:17.978Z","count":6895,"entries":[{"name":"ACS3","line1":"1 59588U 24077B   26176.24252481  .00019914  00000+0  14382-1 0  9997","line2":"2 59588  97.1685  93.2386 0092294  58.3869 302.6264 13.94555074109162"},{"name":"ALOS-2","line1":"1 39766U 14029A   26175.84931163  .00001425  00000+0  19768-3 0  9998","line2":"2 39766  97.9218 272.9036 0001631  90.6853 269.4546 14.79476915652710"},{"name":"ASTRO-H (HITOMI)","line1":"1 41337U 16012A   26175.96383935  .00002333  00000+0  13226-3 0  9992","line2":"2 41337  31.0000  23.9627 0009740 331.2378  28.7723 15.10541885568466"},{"name":"COSMO-SKYMED 1","line1":"1 31598U 07023A   26176.28904909  .00003265  00000+0  28793-3 0  9998","line2":"2 31598  97.8861   8.2130 0001834  92.1585 267.9847 14.97141281 31002"},{"name":"COSMOS 2428","line1":"1 31792U 07029A   26175.86044985 -.00000036  00000+0  61329-5 0  9990","line2":"2 31792  70.9352 338.3659 0007139 120.2713 239.9115 14.12927757979238"},{"name":"COSMOS 2550","line1":"1 48865U 21056A   26176.30544149  .00005489  00000+0  17248-3 0  9997","line2":"2 48865  67.1436  75.3487 0008404 268.5768  91.4423 15.33841013279967"},{"name":"CSS (TIANHE)","line1":"1 48274U 21035A   26176.29434549  .00027694  00000+0  32098-3 0  9990","line2":"2 48274  41.4688 272.6527 0007845 146.8954 213.2378 15.61147711294432"},{"name":"CZ-2C R/B","line1":"1 31114U 07010B   26176.23193946  .00000063  00000+0  47849-4 0  9991","line2":"2 31114  98.4104 284.1895 0058528 342.6964  17.2218 14.20277815994984"},{"name":"CZ-2C R/B","line1":"1 37731U 11030B   26175.86879728  .00001160  00000+0  15148-3 0  9991","line2":"2 37731  97.8656 131.1162 0052388   3.2587  20.7912 14.81488467805960"},{"name":"CZ-2C R/B","line1":"1 52794U 22058K   26176.04620746  .00040235  00000+0  43742-3 0  9991","line2":"2 52794  50.1846 122.6086 0032027 300.1303  59.6498 15.62365993226877"},{"name":"CZ-2C R/B","line1":"1 54039U 22132E   26175.98249338  .00073629  00000+0  54880-3 0  9992","line2":"2 54039  97.2898 183.3585 0014568  59.8735 300.3971 15.72404603207172"},{"name":"CZ-4B R/B","line1":"1 29507U 06046C   26176.03217297  .00003713  00000+0  18477-3 0  9995","line2":"2 29507  97.5451 220.6149 0031019 254.0818 105.6997 15.17833730 76325"},{"name":"CZ-8A R/B","line1":"1 66004U 25231K   26176.22730363 -.00000037  00000+0  44940-4 0  9992","line2":"2 66004  50.0056   5.1098 0116486 252.3025 106.5146 14.30156949 36095"},{"name":"GSLV R/B","line1":"1 54149U 22138AN  26176.27144819  .00003088  00000+0  26252-3 0  9995","line2":"2 54149  87.3806 130.2692 0023826 116.7418 243.6256 14.97289947200021"},{"name":"H-2A R/B","line1":"1 28932U 06002B   26176.16183182  .00008284  00000+0  39655-3 0  9996","line2":"2 28932  98.2569 332.7132 0049774 234.5569 125.1011 15.18156552110733"},{"name":"H-2A R/B","line1":"1 38341U 12025E   26175.91698724  .00002279  00000+0  20701-3 0  9998","line2":"2 38341  98.4823 151.6997 0043219 323.1835  36.6418 14.95749451764247"},{"name":"H-2A R/B","line1":"1 43682U 18084L   26176.22241268  .00024212  00000+0  50255-3 0  9993","line2":"2 43682  98.8576  56.8691 0022532  13.2037 346.9792 15.45441960422369"},{"name":"HXMT (HUIYAN)","line1":"1 42758U 17034A   26176.29076924  .00004377  00000+0  21699-3 0  9992","line2":"2 42758  43.0128 137.9150 0031805 198.7590 161.2088 15.18523072498896"},{"name":"KORONAS-FOTON","line1":"1 33504U 09003A   26176.29970132  .00013347  00000+0  27320-3 0  9996","line2":"2 33504  82.4285 163.7954 0012370 122.1147 238.1304 15.45874637962358"},{"name":"RESURS-DK 1","line1":"1 29228U 06021A   26176.09988520  .00001983  00000+0  11734-3 0  9994","line2":"2 29228  69.9325 319.0704 0006769 287.9882  72.0546 15.13246973103778"},{"name":"SAOCOM 1A","line1":"1 43641U 18076A   26176.30483272  .00000134  00000+0  23444-4 0  9999","line2":"2 43641  97.8890   2.9354 0001603  80.1657 279.9737 14.82153238417307"},{"name":"SAOCOM 1B","line1":"1 46265U 20059A   26176.26848693  .00000241  00000+0  36806-4 0  9990","line2":"2 46265  97.8893   1.9947 0001615  84.5600 275.5797 14.82150335314681"},{"name":"SHIJIAN-16 (SJ-16)","line1":"1 39358U 13057A   26176.28264685  .00000894  00000+0  89513-4 0  9997","line2":"2 39358  74.9732 341.3497 0016583 211.9712 148.0472 14.92616948687556"},{"name":"SL-16 R/B","line1":"1 31793U 07029B   26175.66442363 -.00000159  00000+0 -57748-4 0  9997","line2":"2 31793  70.9772 307.5099 0002440 263.4687 107.2835 14.14855370980502"},{"name":"SL-4 R/B","line1":"1 39679U 14021B   26176.22951412  .00010497  00000+0  21695-3 0  9996","line2":"2 39679  51.6035 171.3672 0090853 135.2490 225.5871 15.42098562672852"},{"name":"SZ-21 MODULE","line1":"1 66515U 25246C   26174.61333356  .00037843  00000+0  22797-3 0  9996","line2":"2 66515  41.4723 267.2876 0005343  38.8723 321.2505 15.76903759 34759"},{"name":"XRISM","line1":"1 57800U 23137A   26175.77993266  .00004210  00000+0  23017-3 0  9998","line2":"2 57800  31.0028 310.4175 0007823  40.1157 320.0058 15.12524299154014"},{"name":"YAOGAN-29","line1":"1 41038U 15069A   26176.27396648 -.00000249  00000+0 -23960-4 0  9994","line2":"2 41038  98.0031 204.9197 0002215  41.6943 318.4439 14.83089125571824"}]}